EARTHCARE               
1 59908U 24101A   24189.30861988  .00013523  00000+0  20537-3 0  9999
2 59908  96.9828 316.5863 0004374  50.2993 309.8647 15.54679900  6114
